ONEWEB-0144             
1 47290U 20100AJ  25283.76626749  .00000250  00000+0  66020-3 0  9995
2 47290  87.8945  40.1839 0002084 102.1739 257.9623 13.12442966231858
ONEWEB-0145             
1 47291U 20100AK  25283.35587111 -.00000386  00000+0 -11076-2 0  9992
2 47291  87.8953  40.2989 0001794 102.1159 258.0171 13.12442363231994
ONEWEB-0146             
1 47292U 20100AL  25283.58134222 -.00000354  00000+0 -10201-2 0  9993
2 47292  87.8953  40.2407 0001372  99.2822 260.8462 13.12442380231932
ONEWEB-0147             
1 47293U 20100AM  25283.77599520  .00000429  00000+0  11575-2 0  9997
2 47293  87.8953  40.1801 0001782 108.5858 251.5464 13.12443146231859
ONEWEB-0115             
1 48042U 21025A   25283.23702679  .00000394  00000+0  10450-2 0  9991
2 48042  87.9060   9.8791 0001746 100.3732 259.7594 13.13470355220780
ONEWEB-0152             
1 48043U 21025B   25283.63145667  .00000110  00000+0  26672-3 0  9994
2 48043  87.9048   9.8138 0001706 102.6627 257.4693 13.13468093220798
ONEWEB-0153             
1 48044U 21025C   25283.68563005  .00000331  00000+0  87146-3 0  9998
2 48044  87.9054   9.8041 0001884  99.9633 260.1709 13.13469649220798
ONEWEB-0154             
1 48045U 21025D   25283.52988611  .00000358  00000+0  94413-3 0  9990
2 48045  87.9052   9.8313 0001826 103.0680 257.0653 13.13471848220735
